{"type": "FeatureCollection", "features": [{"type": "Feature", "properties": {"norad_id": 24876, "name": "GPS BIIR-2  (PRN 13)", "group": "gnss", "lat": -50.591611799842894, "lon": 50.087566812409314, "alt_km": 20336.270741732966, "timestamp": "2025-12-21T14:40:48.158514+00:00", "meta": {"OBJECT_NAME": "GPS BIIR-2  (PRN 13)", "OBJECT_ID": "1997-035A", "EPOCH": "2025-12-21T05:00:18.122112", "MEAN_MOTION": 2.00563754, "ECCENTRICITY": 0.00968202, "INCLINATION": 55.8993, "RA_OF_ASC_NODE": 105.5377, "ARG_OF_PERICENTER": 56.9664, "MEAN_ANOMALY": 303.9402, "EPHEMERIS_TYPE": 0, "CLASSIFICATION_TYPE": "U", "NORAD_CAT_ID": 24876, "ELEMENT_SET_NO": 999, "REV_AT_EPOCH": 20838, "BSTAR": 0, "MEAN_MOTION_DOT": 2e-08, "MEAN_MOTION_DDOT": 0}, "tle": {"line1": "1 24876U 97035A   25355.20854308  .00000002  00000+0  00000+0 0  9991", "line2": "2 24876  55.8993 105.5377 0096820  56.9664 303.9402  2.00563754208381"}}, "geometry": {"type": "Point", "coordinates": [50.087566812409314, -50.591611799842894]}}, {"type": "Feature", "properties": {"norad_id": 26360, "name": "GPS BIIR-4  (PRN 20)", "group": "gnss", "lat": 19.674006945618597, "lon": 40.9714367057987, "alt_km": 20260.41169339432, "timestamp": "2025-12-21T14:40:48.158559+00:00", "meta": {"OBJECT_NAME": "GPS BIIR-4  (PRN 20)", "OBJECT_ID": "2000-025A", "EPOCH": "2025-12-21T05:19:14.670912", "MEAN_MOTION": 2.0056705, "ECCENTRICITY": 0.0038897, "INCLINATION": 55.0502, "RA_OF_ASC_NODE": 26.4949, "ARG_OF_PERICENTER": 242.7827, "MEAN_ANOMALY": 219.6694, "EPHEMERIS_TYPE": 0, "CLASSIFICATION_TYPE": "U", "NORAD_CAT_ID": 26360, "ELEMENT_SET_NO": 999, "REV_AT_EPOCH": 18770, "BSTAR": 0, "MEAN_MOTION_DOT": -6.2e-07, "MEAN_MOTION_DDOT": 0}, "tle": {"line1": "1 26360U 00025A   25355.22169758 -.00000062  00000+0  00000+0 0  9991", "line2": "2 26360  55.0502  26.4949 0038897 242.7827 219.6694  2.00567050187702"}}, "geometry": {"type": "Point", "coordinates": [40.9714367057987, 19.674006945618597]}}, {"type": "Feature", "properties": {"norad_id": 26407, "name": "GPS BIIR-5  (PRN 22)", "group": "gnss", "lat": -33.35581192832168, "lon": 69.81093871063264, "alt_km": 20122.834338435732, "timestamp": "2025-12-21T14:40:48.158578+00:00", "meta": {"OBJECT_NAME": "GPS BIIR-5  (PRN 22)", "OBJECT_ID": "2000-040A", "EPOCH": "2025-12-21T01:01:32.979648", "MEAN_MOTION": 2.00568107, "ECCENTRICITY": 0.01255563, "INCLINATION": 54.889, "RA_OF_ASC_NODE": 222.2388, "ARG_OF_PERICENTER": 301.9496, "MEAN_ANOMALY": 230.9465, "EPHEMERIS_TYPE": 0, "CLASSIFICATION_TYPE": "U", "NORAD_CAT_ID": 26407, "ELEMENT_SET_NO": 999, "REV_AT_EPOCH": 18637, "BSTAR": 0, "MEAN_MOTION_DOT": 7.2e-07, "MEAN_MOTION_DDOT": 0}, "tle": {"line1": "1 26407U 00040A   25355.04274282  .00000072  00000+0  00000+0 0  9999", "line2": "2 26407  54.8890 222.2388 0125556 301.9496 230.9465  2.00568107186371"}}, "geometry": {"type": "Point", "coordinates": [69.81093871063264, -33.35581192832168]}}, {"type": "Feature", "properties": {"norad_id": 27663, "name": "GPS BIIR-8  (PRN 16)", "group": "gnss", "lat": -1.4615805531411485, "lon": -138.98770308361708, "alt_km": 19945.597441880327, "timestamp": "2025-12-21T14:40:48.158607+00:00", "meta": {"OBJECT_NAME": "GPS BIIR-8  (PRN 16)", "OBJECT_ID": "2003-005A", "EPOCH": "2025-12-20T15:07:28.763328", "MEAN_MOTION": 2.00570507, "ECCENTRICITY": 0.0147742, "INCLINATION": 54.9216, "RA_OF_ASC_NODE": 222.0644, "ARG_OF_PERICENTER": 51.9121, "MEAN_ANOMALY": 319.0535, "EPHEMERIS_TYPE": 0, "CLASSIFICATION_TYPE": "U", "NORAD_CAT_ID": 27663, "ELEMENT_SET_NO": 999, "REV_AT_EPOCH": 16773, "BSTAR": 0, "MEAN_MOTION_DOT": 7.3e-07, "MEAN_MOTION_DDOT": 0}, "tle": {"line1": "1 27663U 03005A   25354.63019402  .00000073  00000+0  00000+0 0  9994", "line2": "2 27663  54.9216 222.0644 0147742  51.9121 319.0535  2.00570507167733"}}, "geometry": {"type": "Point", "coordinates": [-138.98770308361708, -1.4615805531411485]}}, {"type": "Feature", "properties": {"norad_id": 28190, "name": "GPS BIIR-11 (PRN 19)", "group": "gnss", "lat": 17.974549774060886, "lon": 89.7185287941381, "alt_km": 19896.069521726666, "timestamp": "2025-12-21T14:40:48.158622+00:00", "meta": {"OBJECT_NAME": "GPS BIIR-11 (PRN 19)", "OBJECT_ID": "2004-009A", "EPOCH": "2025-12-20T02:10:39.105696", "MEAN_MOTION": 2.00560582, "ECCENTRICITY": 0.01084506, "INCLINATION": 54.979, "RA_OF_ASC_NODE": 282.9228, "ARG_OF_PERICENTER": 167.7566, "MEAN_ANOMALY": 332.1268, "EPHEMERIS_TYPE": 0, "CLASSIFICATION_TYPE": "U", "NORAD_CAT_ID": 28190, "ELEMENT_SET_NO": 999, "REV_AT_EPOCH": 15935, "BSTAR": 0, "MEAN_MOTION_DOT": -3.4e-07, "MEAN_MOTION_DDOT": 0}, "tle": {"line1": "1 28190U 04009A   25354.09073039 -.00000034  00000+0  00000+0 0  9999", "line2": "2 28190  54.9790 282.9228 0108450 167.7566 332.1268  2.00560582159351"}}, "geometry": {"type": "Point", "coordinates": [89.7185287941381, 17.974549774060886]}}, {"type": "Feature", "properties": {"norad_id": 28474, "name": "GPS BIIR-13 (PRN 02)", "group": "gnss", "lat": -29.265041827442772, "lon": 174.92848567911466, "alt_km": 20201.738355948426, "timestamp": "2025-12-21T14:40:48.158640+00:00", "meta": {"OBJECT_NAME": "GPS BIIR-13 (PRN 02)", "OBJECT_ID": "2004-045A", "EPOCH": "2025-12-20T07:31:09.755904", "MEAN_MOTION": 2.00569954, "ECCENTRICITY": 0.01709047, "INCLINATION": 55.2369, "RA_OF_ASC_NODE": 332.1012, "ARG_OF_PERICENTER": 309.5849, "MEAN_ANOMALY": 51.3395, "EPHEMERIS_TYPE": 0, "CLASSIFICATION_TYPE": "U", "NORAD_CAT_ID": 28474, "ELEMENT_SET_NO": 999, "REV_AT_EPOCH": 15484, "BSTAR": 0, "MEAN_MOTION_DOT": -7.7e-07, "MEAN_MOTION_DDOT": 0}, "tle": {"line1": "1 28474U 04045A   25354.31330736 -.00000077  00000+0  00000+0 0  9996", "line2": "2 28474  55.2369 332.1012 0170904 309.5849  51.3395  2.00569954154846"}}, "geometry": {"type": "Point", "coordinates": [174.92848567911466, -29.265041827442772]}}, {"type": "Feature", "properties": {"norad_id": 28874, "name": "GPS BIIRM-1 (PRN 17)", "group": "gnss", "lat": 3.0392709229579045, "lon": 98.20551193217804, "alt_km": 20338.92829558041, "timestamp": "2025-12-21T14:40:48.158655+00:00", "meta": {"OBJECT_NAME": "GPS BIIRM-1 (PRN 17)", "OBJECT_ID": "2005-038A", "EPOCH": "2025-12-21T00:50:49.977024", "MEAN_MOTION": 2.00577927, "ECCENTRICITY": 0.01313807, "INCLINATION": 55.0245, "RA_OF_ASC_NODE": 280.367, "ARG_OF_PERICENTER": 293.7438, "MEAN_ANOMALY": 187.6731, "EPHEMERIS_TYPE": 0, "CLASSIFICATION_TYPE": "U", "NORAD_CAT_ID": 28874, "ELEMENT_SET_NO": 999, "REV_AT_EPOCH": 14826, "BSTAR": 0, "MEAN_MOTION_DOT": -2.4e-07, "MEAN_MOTION_DDOT": 0}, "tle": {"line1": "1 28874U 05038A   25355.03530066 -.00000024  00000+0  00000+0 0  9993", "line2": "2 28874  55.0245 280.3670 0131380 293.7438 187.6731  2.00577927148263"}}, "geometry": {"type": "Point", "coordinates": [98.20551193217804, 3.0392709229579045]}}, {"type": "Feature", "properties": {"norad_id": 28899, "name": "INMARSAT 4-F2 (SOUTHPAN/PRN 122)", "group": "gnss", "lat": 3.7686555032626163, "lon": 94.02820011161224, "alt_km": 35794.92534247827, "timestamp": "2025-12-21T14:40:48.158669+00:00", "meta": {"OBJECT_NAME": "INMARSAT 4-F2 (SOUTHPAN/PRN 122)", "OBJECT_ID": "2005-044A", "EPOCH": "2025-12-21T04:44:51.749952", "MEAN_MOTION": 1.00272492, "ECCENTRICITY": 0.00022426, "INCLINATION": 4.8613, "RA_OF_ASC_NODE": 43.7082, "ARG_OF_PERICENTER": 233.8712, "MEAN_ANOMALY": 27.1617, "EPHEMERIS_TYPE": 0, "CLASSIFICATION_TYPE": "U", "NORAD_CAT_ID": 28899, "ELEMENT_SET_NO": 999, "REV_AT_EPOCH": 7373, "BSTAR": 0, "MEAN_MOTION_DOT": -2.41e-06, "MEAN_MOTION_DDOT": 0}, "tle": {"line1": "1 28899U 05044A   25355.19782118 -.00000241  00000+0  00000+0 0  9992", "line2": "2 28899   4.8613  43.7082 0002242 233.8712  27.1617  1.00272492 73731"}}, "geometry": {"type": "Point", "coordinates": [94.02820011161224, 3.7686555032626163]}}, {"type": "Feature", "properties": {"norad_id": 29486, "name": "GPS BIIRM-2 (PRN 31)", "group": "gnss", "lat": 53.59956158017855, "lon": -127.57992972839808, "alt_km": 19925.75038761586, "timestamp": "2025-12-21T14:40:48.158682+00:00", "meta": {"OBJECT_NAME": "GPS BIIRM-2 (PRN 31)", "OBJECT_ID": "2006-042A", "EPOCH": "2025-12-21T07:20:25.573056", "MEAN_MOTION": 2.00553833, "ECCENTRICITY": 0.01072923, "INCLINATION": 54.6951, "RA_OF_ASC_NODE": 158.401, "ARG_OF_PERICENTER": 52.1572, "MEAN_ANOMALY": 167.0314, "EPHEMERIS_TYPE": 0, "CLASSIFICATION_TYPE": "U", "NORAD_CAT_ID": 29486, "ELEMENT_SET_NO": 999, "REV_AT_EPOCH": 14082, "BSTAR": 0, "MEAN_MOTION_DOT": 7e-07, "MEAN_MOTION_DDOT": 0}, "tle": {"line1": "1 29486U 06042A   25355.30585154  .00000070  00000+0  00000+0 0  9997", "line2": "2 29486  54.6951 158.4010 0107292  52.1572 167.0314  2.00553833140829"}}, "geometry": {"type": "Point", "coordinates": [-127.57992972839808, 53.59956158017855]}}, {"type": "Feature", "properties": {"norad_id": 29601, "name": "GPS BIIRM-3 (PRN 12)", "group": "gnss", "lat": 32.47513670071231, "lon": 14.550268962305328, "alt_km": 20030.633483053483, "timestamp": "2025-12-21T14:40:48.158694+00:00", "meta": {"OBJECT_NAME": "GPS BIIRM-3 (PRN 12)", "OBJECT_ID": "2006-052A", "EPOCH": "2025-12-20T22:09:19.493856", "MEAN_MOTION": 2.00574173, "ECCENTRICITY": 0.00879992, "INCLINATION": 54.9689, "RA_OF_ASC_NODE": 221.0734, "ARG_OF_PERICENTER": 87.5315, "MEAN_ANOMALY": 273.5726, "EPHEMERIS_TYPE": 0, "CLASSIFICATION_TYPE": "U", "NORAD_CAT_ID": 29601, "ELEMENT_SET_NO": 999, "REV_AT_EPOCH": 13983, "BSTAR": 0, "MEAN_MOTION_DOT": 7.4e-07, "MEAN_MOTION_DDOT": 0}, "tle": {"line1": "1 29601U 06052A   25354.92314229  .00000074  00000+0  00000+0 0  9991", "line2": "2 29601  54.9689 221.0734 0087999  87.5315 273.5726  2.00574173139836"}}, "geometry": {"type": "Point", "coordinates": [14.550268962305328, 32.47513670071231]}}]}